[{"OBJECT_NAME":"STARLINK-1569","OBJECT_ID":"2020-055N","EPOCH":"2026-03-10T00:00:02.999808","MEAN_MOTION":15.18469415,"ECCENTRICITY":0.00021467,"INCLINATION":53.1037,"RA_OF_ASC_NODE":124.869,"ARG_OF_PERICENTER":70.9863,"MEAN_ANOMALY":37.8804,"EPHEMERIS_TYPE":0,"CLASSIFICATION_TYPE":"U","NORAD_CAT_ID":46039,"ELEMENT_SET_NO":999,"REV_AT_EPOCH":579,"BSTAR":0.0056656927,"MEAN_MOTION_DOT":0.00119854,"MEAN_MOTION_DDOT":0},{"OBJECT_NAME":"OTP-2","OBJECT_ID":"2025-052AB","EPOCH":"2026-03-09T15:22:45.676416","MEAN_MOTION":15.22471318,"ECCENTRICITY":0.0007494,"INCLINATION":97.3983,"RA_OF_ASC_NODE":322.5927,"ARG_OF_PERICENTER":139.5012,"MEAN_ANOMALY":220.6784,"EPHEMERIS_TYPE":0,"CLASSIFICATION_TYPE":"U","NORAD_CAT_ID":63235,"ELEMENT_SET_NO":999,"REV_AT_EPOCH":5471,"BSTAR":0.00047808,"MEAN_MOTION_DOT":0.00011014,"MEAN_MOTION_DDOT":0}]
